[{"OBJECT_NAME":"STARLINK-36813","OBJECT_ID":"2026-035P","EPOCH":"2026-03-15T06:31:21.251136","MEAN_MOTION":15.80828858,"ECCENTRICITY":0.00014901,"INCLINATION":97.282,"RA_OF_ASC_NODE":6.951,"ARG_OF_PERICENTER":33.289,"MEAN_ANOMALY":326.8471,"EPHEMERIS_TYPE":0,"CLASSIFICATION_TYPE":"U","NORAD_CAT_ID":67892,"ELEMENT_SET_NO":999,"REV_AT_EPOCH":472,"BSTAR":0.0021986586,"MEAN_MOTION_DOT":0.00443403,"MEAN_MOTION_DDOT":0},{"OBJECT_NAME":"STARLINK-36803","OBJECT_ID":"2026-035Q","EPOCH":"2026-03-15T06:37:51.367872","MEAN_MOTION":15.80931565,"ECCENTRICITY":0.00018967,"INCLINATION":97.2835,"RA_OF_ASC_NODE":6.9482,"ARG_OF_PERICENTER":68.7271,"MEAN_ANOMALY":291.42,"EPHEMERIS_TYPE":0,"CLASSIFICATION_TYPE":"U","NORAD_CAT_ID":67893,"ELEMENT_SET_NO":999,"REV_AT_EPOCH":472,"BSTAR":0.0019006586,"MEAN_MOTION_DOT":0.00382353,"MEAN_MOTION_DDOT":0},{"OBJECT_NAME":"STARLINK-36846","OBJECT_ID":"2026-035R","EPOCH":"2026-03-15T06:00:00.999648","MEAN_MOTION":15.75158737,"ECCENTRICITY":0.0001508,"INCLINATION":97.286,"RA_OF_ASC_NODE":6.9192,"ARG_OF_PERICENTER":106.1759,"MEAN_ANOMALY":87.4209,"EPHEMERIS_TYPE":0,"CLASSIFICATION_TYPE":"U","NORAD_CAT_ID":67894,"ELEMENT_SET_NO":999,"REV_AT_EPOCH":465,"BSTAR":0.00042660223,"MEAN_MOTION_DOT":0.00063892,"MEAN_MOTION_DDOT":0},{"OBJECT_NAME":"STARLINK-36866","OBJECT_ID":"2026-035S","EPOCH":"2026-03-15T06:34:36.217056","MEAN_MOTION":15.80781728,"ECCENTRICITY":8.397e-5,"INCLINATION":97.2846,"RA_OF_ASC_NODE":6.9527,"ARG_OF_PERICENTER":60.29,"MEAN_ANOMALY":299.8451,"EPHEMERIS_TYPE":0,"CLASSIFICATION_TYPE":"U","NORAD_CAT_ID":67895,"ELEMENT_SET_NO":999,"REV_AT_EPOCH":472,"BSTAR":0.0017769688,"MEAN_MOTION_DOT":0.00353871,"MEAN_MOTION_DDOT":0},{"OBJECT_NAME":"STARLINK-36877","OBJECT_ID":"2026-035T","EPOCH":"2026-03-15T06:36:46.302624","MEAN_MOTION":15.80821386,"ECCENTRICITY":0.0002505,"INCLINATION":97.2828,"RA_OF_ASC_NODE":6.9488,"ARG_OF_PERICENTER":70.2951,"MEAN_ANOMALY":289.8587,"EPHEMERIS_TYPE":0,"CLASSIFICATION_TYPE":"U","NORAD_CAT_ID":67896,"ELEMENT_SET_NO":999,"REV_AT_EPOCH":472,"BSTAR":0.0018463503,"MEAN_MOTION_DOT":0.00368996,"MEAN_MOTION_DDOT":0},{"OBJECT_NAME":"STARLINK-36870","OBJECT_ID":"2026-035U","EPOCH":"2026-03-15T02:00:02.204640","MEAN_MOTION":15.80943904,"ECCENTRICITY":0.00024017,"INCLINATION":97.2838,"RA_OF_ASC_NODE":6.7512,"ARG_OF_PERICENTER":99.4789,"MEAN_ANOMALY":260.675,"EPHEMERIS_TYPE":0,"CLASSIFICATION_TYPE":"U","NORAD_CAT_ID":67897,"ELEMENT_SET_NO":999,"REV_AT_EPOCH":469,"BSTAR":0.0024959141,"MEAN_MOTION_DOT":0.00509928,"MEAN_MOTION_DDOT":0},{"OBJECT_NAME":"STARLINK-36810","OBJECT_ID":"2026-035V","EPOCH":"2026-03-15T06:32:26.469312","MEAN_MOTION":15.80829606,"ECCENTRICITY":0.00014009,"INCLINATION":97.2821,"RA_OF_ASC_NODE":6.9502,"ARG_OF_PERICENTER":59.1779,"MEAN_ANOMALY":300.9627,"EPHEMERIS_TYPE":0,"CLASSIFICATION_TYPE":"U","NORAD_CAT_ID":67898,"ELEMENT_SET_NO":999,"REV_AT_EPOCH":472,"BSTAR":0.0014334969,"MEAN_MOTION_DOT":0.00283738,"MEAN_MOTION_DDOT":0},{"OBJECT_NAME":"STARLINK-36878","OBJECT_ID":"2026-035W","EPOCH":"2026-03-15T06:30:16.314624","MEAN_MOTION":15.80837556,"ECCENTRICITY":0.00014267,"INCLINATION":97.282,"RA_OF_ASC_NODE":6.9533,"ARG_OF_PERICENTER":23.718,"MEAN_ANOMALY":336.4154,"EPHEMERIS_TYPE":0,"CLASSIFICATION_TYPE":"U","NORAD_CAT_ID":67899,"ELEMENT_SET_NO":999,"REV_AT_EPOCH":472,"BSTAR":0.0013460083,"MEAN_MOTION_DOT":0.00265961,"MEAN_MOTION_DDOT":0},{"OBJECT_NAME":"STARLINK-36361","OBJECT_ID":"2026-035X","EPOCH":"2026-03-15T06:29:11.712480","MEAN_MOTION":15.81127199,"ECCENTRICITY":3.623e-5,"INCLINATION":97.2859,"RA_OF_ASC_NODE":6.956,"ARG_OF_PERICENTER":19.2318,"MEAN_ANOMALY":340.8964,"EPHEMERIS_TYPE":0,"CLASSIFICATION_TYPE":"U","NORAD_CAT_ID":67900,"ELEMENT_SET_NO":999,"REV_AT_EPOCH":472,"BSTAR":0.0017869818,"MEAN_MOTION_DOT":0.0036187,"MEAN_MOTION_DDOT":0},{"OBJECT_NAME":"STARLINK-36336","OBJECT_ID":"2026-035Y","EPOCH":"2026-03-15T06:25:56.548704","MEAN_MOTION":15.80846855,"ECCENTRICITY":0.00012484,"INCLINATION":97.2856,"RA_OF_ASC_NODE":6.9606,"ARG_OF_PERICENTER":26.0087,"MEAN_ANOMALY":334.1244,"EPHEMERIS_TYPE":0,"CLASSIFICATION_TYPE":"U","NORAD_CAT_ID":67901,"ELEMENT_SET_NO":999,"REV_AT_EPOCH":472,"BSTAR":0.0022241122,"MEAN_MOTION_DOT":0.00449218,"MEAN_MOTION_DDOT":0},{"OBJECT_NAME":"STARLINK-36876","OBJECT_ID":"2026-035Z","EPOCH":"2026-03-15T06:28:06.585024","MEAN_MOTION":15.80886426,"ECCENTRICITY":9.477e-5,"INCLINATION":97.2851,"RA_OF_ASC_NODE":6.9576,"ARG_OF_PERICENTER":13.8255,"MEAN_ANOMALY":346.3039,"EPHEMERIS_TYPE":0,"CLASSIFICATION_TYPE":"U","NORAD_CAT_ID":67902,"ELEMENT_SET_NO":999,"REV_AT_EPOCH":472,"BSTAR":0.001945736,"MEAN_MOTION_DOT":0.00391032,"MEAN_MOTION_DDOT":0},{"OBJECT_NAME":"STARLINK-36257","OBJECT_ID":"2026-035AA","EPOCH":"2026-03-15T06:00:00.999648","MEAN_MOTION":15.75125915,"ECCENTRICITY":0.00011813,"INCLINATION":97.2859,"RA_OF_ASC_NODE":6.9349,"ARG_OF_PERICENTER":105.1644,"MEAN_ANOMALY":124.4414,"EPHEMERIS_TYPE":0,"CLASSIFICATION_TYPE":"U","NORAD_CAT_ID":67903,"ELEMENT_SET_NO":999,"REV_AT_EPOCH":470,"BSTAR":0.0011187654,"MEAN_MOTION_DOT":0.00169626,"MEAN_MOTION_DDOT":0},{"OBJECT_NAME":"STARLINK-36814","OBJECT_ID":"2026-036A","EPOCH":"2026-03-15T06:00:00.999648","MEAN_MOTION":15.52363355,"ECCENTRICITY":0.00014002,"INCLINATION":42.9997,"RA_OF_ASC_NODE":216.6757,"ARG_OF_PERICENTER":271.6794,"MEAN_ANOMALY":328.6132,"EPHEMERIS_TYPE":0,"CLASSIFICATION_TYPE":"U","NORAD_CAT_ID":67904,"ELEMENT_SET_NO":999,"REV_AT_EPOCH":454,"BSTAR":-0.035209308,"MEAN_MOTION_DOT":-0.01971564,"MEAN_MOTION_DDOT":0},{"OBJECT_NAME":"STARLINK-36729","OBJECT_ID":"2026-036B","EPOCH":"2026-03-15T06:00:00.999648","MEAN_MOTION":15.6185565,"ECCENTRICITY":0.00016424,"INCLINATION":42.9995,"RA_OF_ASC_NODE":216.1575,"ARG_OF_PERICENTER":274.0914,"MEAN_ANOMALY":175.0049,"EPHEMERIS_TYPE":0,"CLASSIFICATION_TYPE":"U","NORAD_CAT_ID":67905,"ELEMENT_SET_NO":999,"REV_AT_EPOCH":454,"BSTAR":-0.024469407,"MEAN_MOTION_DOT":-0.0192812,"MEAN_MOTION_DDOT":0},{"OBJECT_NAME":"STARLINK-36763","OBJECT_ID":"2026-036C","EPOCH":"2026-03-15T06:00:00.999648","MEAN_MOTION":15.62799281,"ECCENTRICITY":0.00014996,"INCLINATION":42.9994,"RA_OF_ASC_NODE":216.1068,"ARG_OF_PERICENTER":277.0667,"MEAN_ANOMALY":192.301,"EPHEMERIS_TYPE":0,"CLASSIFICATION_TYPE":"U","NORAD_CAT_ID":67906,"ELEMENT_SET_NO":999,"REV_AT_EPOCH":454,"BSTAR":-0.023543827,"MEAN_MOTION_DOT":-0.01925764,"MEAN_MOTION_DDOT":0},{"OBJECT_NAME":"STARLINK-36742","OBJECT_ID":"2026-036D","EPOCH":"2026-03-15T06:00:00.999648","MEAN_MOTION":15.61880061,"ECCENTRICITY":0.00016135,"INCLINATION":42.9993,"RA_OF_ASC_NODE":216.1348,"ARG_OF_PERICENTER":280.3048,"MEAN_ANOMALY":177.7672,"EPHEMERIS_TYPE":0,"CLASSIFICATION_TYPE":"U","NORAD_CAT_ID":67907,"ELEMENT_SET_NO":999,"REV_AT_EPOCH":454,"BSTAR":-0.024440949,"MEAN_MOTION_DOT":-0.01927752,"MEAN_MOTION_DDOT":0}]
